NORAD_CAT_ID,OBJECT_NAME,OBJECT_TYPE,EPOCH,MEAN_MOTION,ECCENTRICITY,INCLINATION,RA_OF_ASC_NODE,ARG_OF_PERICENTER,MEAN_ANOMALY,BSTAR,MEAN_MOTION_DOT,MEAN_MOTION_DDOT,TLE_LINE0,TLE_LINE1,TLE_LINE2,SEMIMAJOR_AXIS,PERIOD,APOGEE,PERIGEE,DECAYED
55433.0,STARLINK-5570,PAYLOAD,2024-03-04 16:16:36,14.98348924,0.000283,70.0016,157.5832,259.9185,100.1655,0.00019178,2.197e-05,0.0,0 STARLINK-5570,1 55433U 23014AU  24064.67819733  .00002197  00000-0  19178-3 0  9998,2 55433  70.0016 157.5832 0002830 259.9185 100.1655 14.98348924 60971,6950.134,96.106,573.966,570.032,0.0
55433.0,STARLINK-5570,PAYLOAD,2024-03-05 14:42:32,14.98311932,0.0003071,70.0005,155.2248,269.8227,90.258,-0.00014072,-1.771e-05,0.0,0 STARLINK-5570,1 55433U 23014AU  24065.61287524 -.00001771  00000-0 -14072-3 0  9997,2 55433  70.0005 155.2248 0003071 269.8227  90.2580 14.98311932 61112,6950.249,96.108,574.248,569.979,0.0
55433.0,STARLINK-5570,PAYLOAD,2024-03-05 16:18:40,14.98312654,0.0003073,70.0006,155.0566,269.6276,90.4531,-0.00012862,-1.627e-05,0.0,0 STARLINK-5570,1 55433U 23014AU  24065.67963525 -.00001627  00000-0 -12862-3 0  9990,2 55433  70.0006 155.0566 0003073 269.6276  90.4531 14.98312654 60184,6950.247,96.108,574.247,569.976,0.0
55433.0,STARLINK-5570,PAYLOAD,2024-03-06 11:32:16,14.98329292,0.0002763,70.001,153.0363,273.1717,86.9126,-8.3156e-05,-1.085e-05,0.0,0 STARLINK-5570,1 55433U 23014AU  24066.48074839 -.00001085  00000-0 -83156-4 0  9994,2 55433  70.0010 153.0363 0002763 273.1717  86.9126 14.98329292 60307,6950.195,96.107,573.98,570.14,0.0
55433.0,STARLINK-5570,PAYLOAD,2024-03-06 13:08:24,14.98332952,0.0002722,70.001,152.8696,266.7497,93.335,-8.7843e-05,-1.141e-05,0.0,0 STARLINK-5570,1 55433U 23014AU  24066.54750507 -.00001141  00000-0 -87843-4 0  9994,2 55433  70.0010 152.8696 0002722 266.7497  93.3350 14.98332952 61254,6950.184,96.107,573.941,570.157,0.0
55433.0,STARLINK-5570,PAYLOAD,2024-03-07 14:46:33,14.98340906,0.0002796,70.002,150.1756,269.1706,90.9133,0.00065557,7.74e-05,0.0,0 STARLINK-5570,1 55433U 23014AU  24067.61566701  .00007740  00000-0  65557-3 0  9990,2 55433  70.0020 150.1756 0002796 269.1706  90.9133 14.98340906 61412,6950.159,96.106,573.967,570.081,0.0
55433.0,STARLINK-5570,PAYLOAD,2024-03-08 11:36:17,14.98347628,0.0002649,70.0025,147.9872,265.8579,94.2278,0.00040557,4.752e-05,0.0,0 STARLINK-5570,1 55433U 23014AU  24068.48353852  .00004752  00000-0  40557-3 0  9990,2 55433  70.0025 147.9872 0002649 265.8579  94.2278 14.98347628 61547,6950.138,96.106,573.844,570.162,0.0
55433.0,STARLINK-5570,PAYLOAD,2024-03-08 22:49:13,14.98348384,0.000291,70.0021,146.8094,269.053,91.0296,0.00028521,3.313e-05,0.0,0 STARLINK-5570,1 55433U 23014AU  24068.95085339  .00003313  00000-0  28521-3 0  9993,2 55433  70.0021 146.8094 0002910 269.0530  91.0296 14.98348384 60679,6950.136,96.106,574.024,569.979,0.0
55433.0,STARLINK-5570,PAYLOAD,2024-03-09 11:38:17,14.98345852,0.0002669,70.0017,145.4622,265.9825,94.1029,0.00014338,1.619e-05,0.0,0 STARLINK-5570,1 55433U 23014AU  24069.48492995  .00001619  00000-0  14338-3 0  9990,2 55433  70.0017 145.4622 0002669 265.9825  94.1029 14.98345852 61697,6950.144,96.106,573.864,570.154,0.0
55433.0,STARLINK-5570,PAYLOAD,2024-03-09 22:51:14,14.98341686,0.0003158,70.0007,144.2834,269.4414,90.6383,7.9116e-05,8.51e-06,0.0,0 STARLINK-5570,1 55433U 23014AU  24069.95224801  .00000851  00000-0  79116-4 0  9994,2 55433  70.0007 144.2834 0003158 269.4414  90.6383 14.98341686 60824,6950.157,96.106,574.217,569.827,0.0
55433.0,STARLINK-5570,PAYLOAD,2024-03-10 11:40:19,14.98329654,0.0002862,70.0001,142.9375,270.1834,89.8997,-8.8218e-05,-1.145e-05,0.0,0 STARLINK-5570,1 55433U 23014AU  24070.48633912 -.00001145  00000-0 -88218-4 0  9993,2 55433  70.0001 142.9375 0002862 270.1834  89.8997 14.98329654 60900,6950.194,96.107,574.048,570.07,0.0
55433.0,STARLINK-5570,PAYLOAD,2024-03-11 11:42:20,14.98332704,0.0003062,69.9997,140.4131,270.6837,89.3971,3.8574e-05,3.67e-06,0.0,0 STARLINK-5570,1 55433U 23014AU  24071.48773482  .00000367  00000-0  38574-4 0  9994,2 55433  69.9997 140.4131 0003062 270.6837  89.3971 14.98332704 61059,6950.185,96.107,574.178,569.921,0.0
55433.0,STARLINK-5570,PAYLOAD,2024-03-12 05:19:47,14.98346502,0.0002775,69.9998,138.5616,262.6461,97.4383,0.00043385,5.09e-05,0.0,0 STARLINK-5570,1 55433U 23014AU  24072.22207800  .00005090  00000-0  43385-3 0  9996,2 55433  69.9998 138.5616 0002775 262.6461  97.4383 14.98346502 61160,6950.142,96.106,573.936,570.078,0.0
55433.0,STARLINK-5570,PAYLOAD,2024-03-12 21:21:06,14.98373172,0.0002843,70.0008,136.8766,280.262,79.8219,-0.00037201,-4.534e-05,0.0,0 STARLINK-5570,1 55433U 23014AU  24072.88966334 -.00004534  00000-0 -37201-3 0  9996,2 55433  70.0008 136.8766 0002843 280.2620  79.8219 14.98373172 62202,6950.059,96.104,573.9,569.948,0.0
55433.0,STARLINK-5570,PAYLOAD,2024-03-13 03:45:41,14.98335678,0.0001852,70.0031,136.2071,269.0294,91.0653,0.00029795,3.464e-05,0.0,0 STARLINK-5570,1 55433U 23014AU  24073.15672455  .00003464  00000-0  29795-3 0  9993,2 55433  70.0031 136.2071 0001852 269.0294  91.0653 14.98335678 61309,6950.175,96.107,573.328,570.753,0.0
55433.0,STARLINK-5570,PAYLOAD,2024-03-13 11:46:22,14.98327184,0.0003058,69.9998,135.3627,267.7182,92.3627,9.0126e-05,9.82e-06,0.0,0 STARLINK-5570,1 55433U 23014AU  24073.49053292  .00000982  00000-0  90126-4 0  9991,2 55433  69.9998 135.3627 0003058 267.7182  92.3627 14.98327184 61359,6950.202,96.107,574.192,569.941,0.0
55433.0,STARLINK-5570,PAYLOAD,2024-03-14 06:59:58,14.98335501,0.0002935,70.0002,133.3433,259.6692,100.4136,-0.00024548,-3.021e-05,0.0,0 STARLINK-5570,1 55433U 23014AU  24074.29165351 -.00003021  00000-0 -24548-3 0  9993,2 55433  70.0002 133.3433 0002935 259.6692 100.4136 14.98335501 62416,6950.176,96.107,574.081,570.001,0.0
55433.0,STARLINK-5570,PAYLOAD,2024-03-14 11:48:23,14.98331627,0.0003013,69.9996,132.8386,264.3179,95.7637,-0.00022598,-2.788e-05,0.0,0 STARLINK-5570,1 55433U 23014AU  24074.49193546 -.00002788  00000-0 -22598-3 0  9994,2 55433  69.9996 132.8386 0003013 264.3179  95.7637 14.98331627 61503,6950.188,96.107,574.147,569.959,0.0
55433.0,STARLINK-5570,PAYLOAD,2024-03-14 13:24:32,14.98315317,0.000328,70.0005,132.6691,259.3248,100.7542,-0.00051722,-6.257e-05,0.0,0 STARLINK-5570,1 55433U 23014AU  24074.55870860 -.00006257  00000-0 -51722-3 0  9998,2 55433  70.0005 132.6691 0003280 259.3248 100.7542 14.98315317 61512,6950.238,96.108,574.383,569.824,0.0
55433.0,STARLINK-5570,PAYLOAD,2024-03-15 03:49:44,14.98313873,0.0003533,70.0006,131.1538,255.9514,104.1252,0.00030143,3.504e-05,0.0,0 STARLINK-5570,1 55433U 23014AU  24075.15953764  .00003504  00000-0  30143-3 0  9994,2 55433  70.0006 131.1538 0003533 255.9514 104.1252 14.98313873 61607,6950.243,96.108,574.563,569.652,0.0
55433.0,STARLINK-5570,PAYLOAD,2024-03-15 11:50:24,14.98327401,0.0002908,70.0009,130.3135,258.6736,101.4096,0.00023592,2.723e-05,0.0,0 STARLINK-5570,1 55433U 23014AU  24075.49333667  .00002723  00000-0  23592-3 0  9997,2 55433  70.0009 130.3135 0002908 258.6736 101.4096 14.98327401 61658,6950.201,96.107,574.087,570.045,0.0
55433.0,STARLINK-5570,PAYLOAD,2024-03-16 11:52:25,14.98329515,0.0003176,69.9991,127.7886,268.9525,91.1271,0.00024501,2.832e-05,0.0,0 STARLINK-5570,1 55433U 23014AU  24076.49473579  .00002832  00000-0  24501-3 0  9997,2 55433  69.9991 127.7886 0003176 268.9525  91.1271 14.98329515 61801,6950.194,96.107,574.267,569.852,0.0
55433.0,STARLINK-5570,PAYLOAD,2024-03-16 13:28:33,14.98330516,0.0003098,69.9991,127.6195,272.2679,87.8126,0.00029444,3.422e-05,0.0,0 STARLINK-5570,1 55433U 23014AU  24076.56149496  .00003422  00000-0  29444-3 0  9990,2 55433  69.9991 127.6195 0003098 272.2679  87.8126 14.98330516 62753,6950.191,96.107,574.209,569.903,0.0
55433.0,STARLINK-5570,PAYLOAD,2024-03-17 11:54:25,14.98335383,0.0002968,69.9992,125.2648,259.0463,101.0363,8.4077e-05,9.1e-06,0.0,0 STARLINK-5570,1 55433U 23014AU  24077.49613299  .00000910  00000-0  84077-4 0  9993,2 55433  69.9992 125.2648 0002968 259.0463 101.0363 14.98335383 61950,6950.176,96.107,574.104,569.978,0.0
55433.0,STARLINK-5570,PAYLOAD,2024-03-17 13:30:33,14.9834941,0.0002802,69.9992,125.096,259.0857,100.9987,-0.00021318,-2.637e-05,0.0,0 STARLINK-5570,1 55433U 23014AU  24077.56288768 -.00002637  00000-0 -21318-3 0  9998,2 55433  69.9992 125.0960 0002802 259.0857 100.9987 14.98349410 62901,6950.133,96.106,573.945,570.05,0.0
55433.0,STARLINK-5570,PAYLOAD,2024-03-18 03:55:46,14.98333186,0.0002998,69.9995,123.5818,266.6003,93.4813,9.1209e-05,9.96e-06,0.0,0 STARLINK-5570,1 55433U 23014AU  24078.16373339  .00000996  00000-0  91209-4 0  9995,2 55433  69.9995 123.5818 0002998 266.6003  93.4813 14.98333186 62055,6950.183,96.107,574.132,569.964,0.0
55433.0,STARLINK-5570,PAYLOAD,2024-03-18 11:56:26,14.98334806,0.0002948,69.9992,122.7396,264.9241,95.1581,9.4524e-05,1.035e-05,0.0,0 STARLINK-5570,1 55433U 23014AU  24078.49753151  .00001035  00000-0  94524-4 0  9993,2 55433  69.9992 122.7396 0002948 264.9241  95.1581 14.98334806 63045,6950.178,96.107,574.092,569.994,0.0
55433.0,STARLINK-5570,PAYLOAD,2024-03-19 11:58:27,14.98335596,0.0002909,69.999,120.2144,262.237,97.8459,9.8231e-05,1.079e-05,0.0,0 STARLINK-5570,1 55433U 23014AU  24079.49892947  .00001079  00000-0  98231-4 0  9998,2 55433  69.9990 120.2144 0002909 262.2370  97.8459 14.98335596 62250,6950.176,96.107,574.062,570.019,0.0
55433.0,STARLINK-5570,PAYLOAD,2024-03-20 10:24:20,14.98331637,0.0002844,69.9992,117.8583,261.3326,98.7511,4.9603e-05,4.99e-06,0.0,0 STARLINK-5570,1 55433U 23014AU  24080.43357138  .00000499  00000-0  49603-4 0  9996,2 55433  69.9992 117.8583 0002844 261.3326  98.7511 14.98331637 62396,6950.188,96.107,574.029,570.076,0.0
55433.0,STARLINK-5570,PAYLOAD,2024-03-20 12:00:28,14.98331744,0.0002857,69.9991,117.6899,262.1412,97.9423,4.8907e-05,4.91e-06,0.0,0 STARLINK-5570,1 55433U 23014AU  24080.50033162  .00000491  00000-0  48907-4 0  9990,2 55433  69.9991 117.6899 0002857 262.1412  97.9423 14.98331744 63340,6950.187,96.107,574.038,570.067,0.0
